{
  "links" : {
    "next" : "https://api.nasa.gov/neo/rest/v1/feed?start_date=2001-07-23&end_date=2001-07-23&detailed=true&api_key=t0TVs3DtDT2H8Oy2Zy8m2eVrNsAVKAexjcZXUckd",
    "prev" : "https://api.nasa.gov/neo/rest/v1/feed?start_date=2001-07-21&end_date=2001-07-21&detailed=true&api_key=t0TVs3DtDT2H8Oy2Zy8m2eVrNsAVKAexjcZXUckd",
    "self" : "https://api.nasa.gov/neo/rest/v1/feed?start_date=2001-07-22&end_date=2001-07-22&detailed=true&api_key=t0TVs3DtDT2H8Oy2Zy8m2eVrNsAVKAexjcZXUckd"
  },
  "element_count" : 5,
  "near_earth_objects" : {
    "2001-07-22" : [ {
      "links" : {
        "self" : "https://api.nasa.gov/neo/rest/v1/neo/2017511?api_key=t0TVs3DtDT2H8Oy2Zy8m2eVrNsAVKAexjcZXUckd"
      },
      "neo_reference_id" : "2017511",
      "name" : "17511 (1992 QN)",
      "nasa_jpl_url" : "http://ssd.jpl.nasa.gov/sbdb.cgi?sstr=2017511",
      "absolute_magnitude_h" : 17.1,
      "estimated_diameter" : {
        "kilometers" : {
          "estimated_diameter_min" : 1.0105434154,
          "estimated_diameter_max" : 2.2596437711
        },
        "meters" : {
          "estimated_diameter_min" : 1010.5434154201,
          "estimated_diameter_max" : 2259.643771094
        },
        "miles" : {
          "estimated_diameter_min" : 0.6279223726,
          "estimated_diameter_max" : 1.4040771097
        },
        "feet" : {
          "estimated_diameter_min" : 3315.4312590467,
          "estimated_diameter_max" : 7413.5296699562
        }
      },
      "is_potentially_hazardous_asteroid" : false,
      "close_approach_data" : [ {
        "close_approach_date" : "2001-07-22",
        "epoch_date_close_approach" : 995785200000,
        "relative_velocity" : {
          "kilometers_per_second" : "17.9683425871",
          "kilometers_per_hour" : "64686.033313663",
          "miles_per_hour" : "40193.385533148"
        },
        "miss_distance" : {
          "astronomical" : "0.2958784165",
          "lunar" : "115.0967025757",
          "kilometers" : "44262780",
          "miles" : "27503616"
        },
        "orbiting_body" : "Earth"
      } ],
      "orbital_data" : {
        "orbit_id" : "131",
        "orbit_determination_date" : "2017-09-22 06:50:43",
        "orbit_uncertainty" : "0",
        "minimum_orbit_intersection" : ".131597",
        "jupiter_tisserand_invariant" : "5.253",
        "epoch_osculation" : "2458000.5",
        "eccentricity" : ".3588766782259067",
        "semi_major_axis" : "1.190023147960224",
        "inclination" : "9.583607775462088",
        "ascending_node_longitude" : "355.942325698794",
        "orbital_period" : "474.1672348186029",
        "perihelion_distance" : ".7629515936083222",
        "perihelion_argument" : "202.3702392324792",
        "aphelion_distance" : "1.617094702312126",
        "perihelion_time" : "2458215.800133478421",
        "mean_anomaly" : "196.5385830974104",
        "mean_motion" : ".7592258038194506",
        "equinox" : "J2000"
      }
    }, {
      "links" : {
        "self" : "https://api.nasa.gov/neo/rest/v1/neo/2153311?api_key=t0TVs3DtDT2H8Oy2Zy8m2eVrNsAVKAexjcZXUckd"
      },
      "neo_reference_id" : "2153311",
      "name" : "153311 (2001 MG1)",
      "nasa_jpl_url" : "http://ssd.jpl.nasa.gov/sbdb.cgi?sstr=2153311",
      "absolute_magnitude_h" : 17.2,
      "estimated_diameter" : {
        "kilometers" : {
          "estimated_diameter_min" : 0.9650614696,
          "estimated_diameter_max" : 2.1579430484
        },
        "meters" : {
          "estimated_diameter_min" : 965.0614695789,
          "estimated_diameter_max" : 2157.9430484443
        },
        "miles" : {
          "estimated_diameter_min" : 0.5996612104,
          "estimated_diameter_max" : 1.34088323
        },
        "feet" : {
          "estimated_diameter_min" : 3166.2122718533,
          "estimated_diameter_max" : 7079.8658710581
        }
      },
      "is_potentially_hazardous_asteroid" : true,
      "close_approach_data" : [ {
        "close_approach_date" : "2001-07-22",
        "epoch_date_close_approach" : 995785200000,
        "relative_velocity" : {
          "kilometers_per_second" : "26.7329501043",
          "kilometers_per_hour" : "96238.6203756003",
          "miles_per_hour" : "59798.9360883834"
        },
        "miss_distance" : {
          "astronomical" : "0.350755027",
          "lunar" : "136.4437103271",
          "kilometers" : "52472208",
          "miles" : "32604718"
        },
        "orbiting_body" : "Earth"
      } ],
      "orbital_data" : {
        "orbit_id" : "64",
        "orbit_determination_date" : "2017-04-06 09:27:05",
        "orbit_uncertainty" : "0",
        "minimum_orbit_intersection" : ".0389748",
        "jupiter_tisserand_invariant" : "3.012",
        "epoch_osculation" : "2458000.5",
        "eccentricity" : ".6458230746931094",
        "semi_major_axis" : "2.500894789608668",
        "inclination" : "28.41493579355274",
        "ascending_node_longitude" : "142.3615136346646",
        "orbital_period" : "1444.579872449573",
        "perihelion_distance" : ".8857592270996213",
        "perihelion_argument" : "218.4962880156054",
        "aphelion_distance" : "4.116030352117716",
        "perihelion_time" : "2457936.021456395286",
        "mean_anomaly" : "16.06853047061779",
        "mean_motion" : ".2492074040804323",
        "equinox" : "J2000"
      }
    }, {
      "links" : {
        "self" : "https://api.nasa.gov/neo/rest/v1/neo/3324630?api_key=t0TVs3DtDT2H8Oy2Zy8m2eVrNsAVKAexjcZXUckd"
      },
      "neo_reference_id" : "3324630",
      "name" : "(2006 DU62)",
      "nasa_jpl_url" : "http://ssd.jpl.nasa.gov/sbdb.cgi?sstr=3324630",
      "absolute_magnitude_h" : 18.0,
      "estimated_diameter" : {
        "kilometers" : {
          "estimated_diameter_min" : 0.6676594135,
          "estimated_diameter_max" : 1.4929318344
        },
        "meters" : {
          "estimated_diameter_min" : 667.6594134952,
          "estimated_diameter_max" : 1492.931834393
        },
        "miles" : {
          "estimated_diameter_min" : 0.4148641974,
          "estimated_diameter_max" : 0.9276645469
        },
        "feet" : {
          "estimated_diameter_min" : 2190.4837101717,
          "estimated_diameter_max" : 4898.07047955
        }
      },
      "is_potentially_hazardous_asteroid" : true,
      "close_approach_data" : [ {
        "close_approach_date" : "2001-07-22",
        "epoch_date_close_approach" : 995785200000,
        "relative_velocity" : {
          "kilometers_per_second" : "20.1482653927",
          "kilometers_per_hour" : "72533.7554137243",
          "miles_per_hour" : "45069.6548569333"
        },
        "miss_distance" : {
          "astronomical" : "0.2597708992",
          "lunar" : "101.0508804321",
          "kilometers" : "38861172",
          "miles" : "24147214"
        },
        "orbiting_body" : "Earth"
      } ],
      "orbital_data" : {
        "orbit_id" : "38",
        "orbit_determination_date" : "2017-04-06 09:09:00",
        "orbit_uncertainty" : "0",
        "minimum_orbit_intersection" : ".00449032",
        "jupiter_tisserand_invariant" : "3.899",
        "epoch_osculation" : "2458000.5",
        "eccentricity" : ".7384274613696914",
        "semi_major_axis" : "1.640219403779847",
        "inclination" : "16.45220467927301",
        "ascending_node_longitude" : "322.2235767559908",
        "orbital_period" : "767.27552457761",
        "perihelion_distance" : ".4290363533573858",
        "perihelion_argument" : "71.73407104429754",
        "aphelion_distance" : "2.851402454202308",
        "perihelion_time" : "2458295.765692141777",
        "mean_anomaly" : "221.4635215562803",
        "mean_motion" : ".4691926022248425",
        "equinox" : "J2000"
      }
    } ]
  }
}